IRIDIUM 921 [-]         
1 24873U 97034E   23356.53295366  .00022948  00000+0  80874-3 0  9999
2 24873  86.3861  15.2670 0004659 167.8332 192.3029 15.29155686447956
IRIDIUM 26 [-]          
1 24903U 97043A   23357.01988978  .00000783  00000+0  26216-3 0  9998
2 24903  86.3957 338.1048 0002471  90.0634 270.0846 14.36127292379374
IRIDIUM 22 [-]          
1 24907U 97043E   23356.93920209  .00000728  00000+0  24873-3 0  9991
2 24907  86.3961 341.2340 0002209  91.0648 269.0801 14.35030006378988
DUMMY MASS 1 [-]        
1 24925U 97048A   23356.63146540  .00000702  00000+0  77276-4 0  9999
2 24925  86.3346  26.0005 0004427 267.9752  92.0966 14.85971337424530
DUMMY MASS 2 [-]        
1 24926U 97048B   23357.11080738  .00000649  00000+0  71569-4 0  9999
2 24926  86.3345  27.2909 0005275 281.7980  78.2652 14.85732466424632
IRIDIUM 29 [-]          
1 24944U 97051A   23356.57992082  .00000765  00000+0  25933-3 0  9998
2 24944  86.3959  11.3374 0002010  96.2618 263.8808 14.35487465375400
IRIDIUM 33 [-]          
1 24946U 97051C   23356.58366731  .00000487  00000+0  16684-3 0  9991
2 24946  86.3874  10.6034 0009644  57.8784 302.3346 14.34205093374960
IRIDIUM 28 [-]          
1 24948U 97051E   23357.11888244  .00000668  00000+0  22138-3 0  9993
2 24948  86.3964   8.9394 0002607  87.4238 272.7258 14.36429049376073
