<?xml version="1.0" encoding="UTF-8"?>
<ndm xmlns:xsi="http://www.w3.org/2001/XMLSchema-instance" xsi:noNamespaceSchemaLocation="https://sanaregistry.org/r/ndmxml_unqualified/ndmxml-2.0.0-master-2.0.xsd">
<omm id="CCSDS_OMM_VERS" version="2.0">
<header><CREATION_DATE/><ORIGINATOR/></header><body><segment><metadata><OBJECT_NAME>IRIDIUM 921 [-]</OBJECT_NAME><OBJECT_ID>1997-034E</OBJECT_ID><CENTER_NAME>EARTH</CENTER_NAME><REF_FRAME>TEME</REF_FRAME><TIME_SYSTEM>UTC</TIME_SYSTEM><MEAN_ELEMENT_THEORY>SGP4</MEAN_ELEMENT_THEORY></metadata><data><meanElements><EPOCH>2023-12-22T12:47:27.196224</EPOCH><MEAN_MOTION>15.29155686</MEAN_MOTION><ECCENTRICITY>.0004659</ECCENTRICITY><INCLINATION>86.3861</INCLINATION><RA_OF_ASC_NODE>15.2670</RA_OF_ASC_NODE><ARG_OF_PERICENTER>167.8332</ARG_OF_PERICENTER><MEAN_ANOMALY>192.3029</MEAN_ANOMALY></meanElements><tleParameters><EPHEMERIS_TYPE>0</EPHEMERIS_TYPE><CLASSIFICATION_TYPE>U</CLASSIFICATION_TYPE><NORAD_CAT_ID>24873</NORAD_CAT_ID><ELEMENT_SET_NO>999</ELEMENT_SET_NO><REV_AT_EPOCH>44795</REV_AT_EPOCH><BSTAR>.80874E-3</BSTAR><MEAN_MOTION_DOT>.22948E-3</MEAN_MOTION_DOT><MEAN_MOTION_DDOT>0</MEAN_MOTION_DDOT></tleParameters></data></segment></body></omm>
<omm id="CCSDS_OMM_VERS" version="2.0">
<header><CREATION_DATE/><ORIGINATOR/></header><body><segment><metadata><OBJECT_NAME>IRIDIUM 26 [-]</OBJECT_NAME><OBJECT_ID>1997-043A</OBJECT_ID><CENTER_NAME>EARTH</CENTER_NAME><REF_FRAME>TEME</REF_FRAME><TIME_SYSTEM>UTC</TIME_SYSTEM><MEAN_ELEMENT_THEORY>SGP4</MEAN_ELEMENT_THEORY></metadata><data><meanElements><EPOCH>2023-12-23T00:28:38.476992</EPOCH><MEAN_MOTION>14.36127292</MEAN_MOTION><ECCENTRICITY>.0002471</ECCENTRICITY><INCLINATION>86.3957</INCLINATION><RA_OF_ASC_NODE>338.1048</RA_OF_ASC_NODE><ARG_OF_PERICENTER>90.0634</ARG_OF_PERICENTER><MEAN_ANOMALY>270.0846</MEAN_ANOMALY></meanElements><tleParameters><EPHEMERIS_TYPE>0</EPHEMERIS_TYPE><CLASSIFICATION_TYPE>U</CLASSIFICATION_TYPE><NORAD_CAT_ID>24903</NORAD_CAT_ID><ELEMENT_SET_NO>999</ELEMENT_SET_NO><REV_AT_EPOCH>37937</REV_AT_EPOCH><BSTAR>.26216E-3</BSTAR><MEAN_MOTION_DOT>.783E-5</MEAN_MOTION_DOT><MEAN_MOTION_DDOT>0</MEAN_MOTION_DDOT></tleParameters></data></segment></body></omm>
<omm id="CCSDS_OMM_VERS" version="2.0">
<header><CREATION_DATE/><ORIGINATOR/></header><body><segment><metadata><OBJECT_NAME>IRIDIUM 22 [-]</OBJECT_NAME><OBJECT_ID>1997-043E</OBJECT_ID><CENTER_NAME>EARTH</CENTER_NAME><REF_FRAME>TEME</REF_FRAME><TIME_SYSTEM>UTC</TIME_SYSTEM><MEAN_ELEMENT_THEORY>SGP4</MEAN_ELEMENT_THEORY></metadata><data><meanElements><EPOCH>2023-12-22T22:32:27.060576</EPOCH><MEAN_MOTION>14.35030006</MEAN_MOTION><ECCENTRICITY>.0002209</ECCENTRICITY><INCLINATION>86.3961</INCLINATION><RA_OF_ASC_NODE>341.2340</RA_OF_ASC_NODE><ARG_OF_PERICENTER>91.0648</ARG_OF_PERICENTER><MEAN_ANOMALY>269.0801</MEAN_ANOMALY></meanElements><tleParameters><EPHEMERIS_TYPE>0</EPHEMERIS_TYPE><CLASSIFICATION_TYPE>U</CLASSIFICATION_TYPE><NORAD_CAT_ID>24907</NORAD_CAT_ID><ELEMENT_SET_NO>999</ELEMENT_SET_NO><REV_AT_EPOCH>37898</REV_AT_EPOCH><BSTAR>.24873E-3</BSTAR><MEAN_MOTION_DOT>.728E-5</MEAN_MOTION_DOT><MEAN_MOTION_DDOT>0</MEAN_MOTION_DDOT></tleParameters></data></segment></body></omm>
<omm id="CCSDS_OMM_VERS" version="2.0">
<header><CREATION_DATE/><ORIGINATOR/></header><body><segment><metadata><OBJECT_NAME>DUMMY MASS 1 [-]</OBJECT_NAME><OBJECT_ID>1997-048A</OBJECT_ID><CENTER_NAME>EARTH</CENTER_NAME><REF_FRAME>TEME</REF_FRAME><TIME_SYSTEM>UTC</TIME_SYSTEM><MEAN_ELEMENT_THEORY>SGP4</MEAN_ELEMENT_THEORY></metadata><data><meanElements><EPOCH>2023-12-22T15:09:18.610560</EPOCH><MEAN_MOTION>14.85971337</MEAN_MOTION><ECCENTRICITY>.0004427</ECCENTRICITY><INCLINATION>86.3346</INCLINATION><RA_OF_ASC_NODE>26.0005</RA_OF_ASC_NODE><ARG_OF_PERICENTER>267.9752</ARG_OF_PERICENTER><MEAN_ANOMALY>92.0966</MEAN_ANOMALY></meanElements><tleParameters><EPHEMERIS_TYPE>0</EPHEMERIS_TYPE><CLASSIFICATION_TYPE>U</CLASSIFICATION_TYPE><NORAD_CAT_ID>24925</NORAD_CAT_ID><ELEMENT_SET_NO>999</ELEMENT_SET_NO><REV_AT_EPOCH>42453</REV_AT_EPOCH><BSTAR>.77276E-4</BSTAR><MEAN_MOTION_DOT>.702E-5</MEAN_MOTION_DOT><MEAN_MOTION_DDOT>0</MEAN_MOTION_DDOT></tleParameters></data></segment></body></omm>
<omm id="CCSDS_OMM_VERS" version="2.0">
<header><CREATION_DATE/><ORIGINATOR/></header><body><segment><metadata><OBJECT_NAME>DUMMY MASS 2 [-]</OBJECT_NAME><OBJECT_ID>1997-048B</OBJECT_ID><CENTER_NAME>EARTH</CENTER_NAME><REF_FRAME>TEME</REF_FRAME><TIME_SYSTEM>UTC</TIME_SYSTEM><MEAN_ELEMENT_THEORY>SGP4</MEAN_ELEMENT_THEORY></metadata><data><meanElements><EPOCH>2023-12-23T02:39:33.757632</EPOCH><MEAN_MOTION>14.85732466</MEAN_MOTION><ECCENTRICITY>.0005275</ECCENTRICITY><INCLINATION>86.3345</INCLINATION><RA_OF_ASC_NODE>27.2909</RA_OF_ASC_NODE><ARG_OF_PERICENTER>281.7980</ARG_OF_PERICENTER><MEAN_ANOMALY>78.2652</MEAN_ANOMALY></meanElements><tleParameters><EPHEMERIS_TYPE>0</EPHEMERIS_TYPE><CLASSIFICATION_TYPE>U</CLASSIFICATION_TYPE><NORAD_CAT_ID>24926</NORAD_CAT_ID><ELEMENT_SET_NO>999</ELEMENT_SET_NO><REV_AT_EPOCH>42463</REV_AT_EPOCH><BSTAR>.71569E-4</BSTAR><MEAN_MOTION_DOT>.649E-5</MEAN_MOTION_DOT><MEAN_MOTION_DDOT>0</MEAN_MOTION_DDOT></tleParameters></data></segment></body></omm>
<omm id="CCSDS_OMM_VERS" version="2.0">
<header><CREATION_DATE/><ORIGINATOR/></header><body><segment><metadata><OBJECT_NAME>IRIDIUM 29 [-]</OBJECT_NAME><OBJECT_ID>1997-051A</OBJECT_ID><CENTER_NAME>EARTH</CENTER_NAME><REF_FRAME>TEME</REF_FRAME><TIME_SYSTEM>UTC</TIME_SYSTEM><MEAN_ELEMENT_THEORY>SGP4</MEAN_ELEMENT_THEORY></metadata><data><meanElements><EPOCH>2023-12-22T13:55:05.158848</EPOCH><MEAN_MOTION>14.35487465</MEAN_MOTION><ECCENTRICITY>.000201</ECCENTRICITY><INCLINATION>86.3959</INCLINATION><RA_OF_ASC_NODE>11.3374</RA_OF_ASC_NODE><ARG_OF_PERICENTER>96.2618</ARG_OF_PERICENTER><MEAN_ANOMALY>263.8808</MEAN_ANOMALY></meanElements><tleParameters><EPHEMERIS_TYPE>0</EPHEMERIS_TYPE><CLASSIFICATION_TYPE>U</CLASSIFICATION_TYPE><NORAD_CAT_ID>24944</NORAD_CAT_ID><ELEMENT_SET_NO>999</ELEMENT_SET_NO><REV_AT_EPOCH>37540</REV_AT_EPOCH><BSTAR>.25933E-3</BSTAR><MEAN_MOTION_DOT>.765E-5</MEAN_MOTION_DOT><MEAN_MOTION_DDOT>0</MEAN_MOTION_DDOT></tleParameters></data></segment></body></omm>
<omm id="CCSDS_OMM_VERS" version="2.0">
<header><CREATION_DATE/><ORIGINATOR/></header><body><segment><metadata><OBJECT_NAME>IRIDIUM 33 [-]</OBJECT_NAME><OBJECT_ID>1997-051C</OBJECT_ID><CENTER_NAME>EARTH</CENTER_NAME><REF_FRAME>TEME</REF_FRAME><TIME_SYSTEM>UTC</TIME_SYSTEM><MEAN_ELEMENT_THEORY>SGP4</MEAN_ELEMENT_THEORY></metadata><data><meanElements><EPOCH>2023-12-22T14:00:28.855584</EPOCH><MEAN_MOTION>14.34205093</MEAN_MOTION><ECCENTRICITY>.0009644</ECCENTRICITY><INCLINATION>86.3874</INCLINATION><RA_OF_ASC_NODE>10.6034</RA_OF_ASC_NODE><ARG_OF_PERICENTER>57.8784</ARG_OF_PERICENTER><MEAN_ANOMALY>302.3346</MEAN_ANOMALY></meanElements><tleParameters><EPHEMERIS_TYPE>0</EPHEMERIS_TYPE><CLASSIFICATION_TYPE>U</CLASSIFICATION_TYPE><NORAD_CAT_ID>24946</NORAD_CAT_ID><ELEMENT_SET_NO>999</ELEMENT_SET_NO><REV_AT_EPOCH>37496</REV_AT_EPOCH><BSTAR>.16684E-3</BSTAR><MEAN_MOTION_DOT>.487E-5</MEAN_MOTION_DOT><MEAN_MOTION_DDOT>0</MEAN_MOTION_DDOT></tleParameters></data></segment></body></omm>
<omm id="CCSDS_OMM_VERS" version="2.0">
<header><CREATION_DATE/><ORIGINATOR/></header><body><segment><metadata><OBJECT_NAME>IRIDIUM 28 [-]</OBJECT_NAME><OBJECT_ID>1997-051E</OBJECT_ID><CENTER_NAME>EARTH</CENTER_NAME><REF_FRAME>TEME</REF_FRAME><TIME_SYSTEM>UTC</TIME_SYSTEM><MEAN_ELEMENT_THEORY>SGP4</MEAN_ELEMENT_THEORY></metadata><data><meanElements><EPOCH>2023-12-23T02:51:11.442816</EPOCH><MEAN_MOTION>14.36429049</MEAN_MOTION><ECCENTRICITY>.0002607</ECCENTRICITY><INCLINATION>86.3964</INCLINATION><RA_OF_ASC_NODE>8.9394</RA_OF_ASC_NODE><ARG_OF_PERICENTER>87.4238</ARG_OF_PERICENTER><MEAN_ANOMALY>272.7258</MEAN_ANOMALY></meanElements><tleParameters><EPHEMERIS_TYPE>0</EPHEMERIS_TYPE><CLASSIFICATION_TYPE>U</CLASSIFICATION_TYPE><NORAD_CAT_ID>24948</NORAD_CAT_ID><ELEMENT_SET_NO>999</ELEMENT_SET_NO><REV_AT_EPOCH>37607</REV_AT_EPOCH><BSTAR>.22138E-3</BSTAR><MEAN_MOTION_DOT>.668E-5</MEAN_MOTION_DOT><MEAN_MOTION_DDOT>0</MEAN_MOTION_DDOT></tleParameters></data></segment></body></omm>

</ndm>
